{
  "type": "FeatureCollection",
  "features": [
    {
      "type": "Feature",
      "properties": {
        "norad_id": 33412,
        "name": "COSMO-SKYMED 3",
        "group": "resource",
        "lat": 24.949260667123905,
        "lon": 16.575746466505084,
        "alt_km": 540.8122607863806,
        "timestamp": "2025-12-08T13:49:31.449950+00:00",
        "meta_object_name": "COSMO-SKYMED 3",
        "meta_object_id": "2008-054A",
        "meta_epoch": "2025-12-08T05:09:46.708416",
        "meta_mean_motion": 15.05286124,
        "meta_eccentricity": 0.00157889,
        "meta_inclination": 97.8458,
        "meta_ra_of_asc_node": 192.5308,
        "meta_arg_of_pericenter": 189.337,
        "meta_mean_anomaly": 170.7565,
        "meta_ephemeris_type": 0,
        "meta_classification_type": "U",
        "meta_norad_cat_id": 33412,
        "meta_element_set_no": 999,
        "meta_rev_at_epoch": 92819,
        "meta_bstar": 0.00050709252,
        "meta_mean_motion_dot": 7.208e-05,
        "meta_mean_motion_ddot": 0,
        "tle_line1": "1 33412U 08054A   25342.21512394  .00007208  00000+0  50709-3 0  9993",
        "tle_line2": "2 33412  97.8458 192.5308 0015788 189.3370 170.7565 15.05286124928198"
      },
      "geometry": {
        "type": "Point",
        "coordinates": [
          16.575746466505084,
          24.949260667123905
        ]
      }
    },
    {
      "type": "Feature",
      "properties": {
        "norad_id": 33446,
        "name": "YAOGAN-4",
        "group": "resource",
        "lat": 63.60813381982096,
        "lon": 109.00333589263366,
        "alt_km": 621.9534298476419,
        "timestamp": "2025-12-08T13:49:31.449961+00:00",
        "meta_object_name": "YAOGAN-4",
        "meta_object_id": "2008-061A",
        "meta_epoch": "2025-12-08T06:49:44.507424",
        "meta_mean_motion": 14.82661208,
        "meta_eccentricity": 0.00139672,
        "meta_inclination": 97.9177,
        "meta_ra_of_asc_node": 272.4273,
        "meta_arg_of_pericenter": 338.5116,
        "meta_mean_anomaly": 21.5509,
        "meta_ephemeris_type": 0,
        "meta_classification_type": "U",
        "meta_norad_cat_id": 33446,
        "meta_element_set_no": 999,
        "meta_rev_at_epoch": 91737,
        "meta_bstar": 0.00034965041,
        "meta_mean_motion_dot": 2.769e-05,
        "meta_mean_motion_ddot": 0,
        "tle_line1": "1 33446U 08061A   25342.28454291  .00002769  00000+0  34965-3 0  9999",
        "tle_line2": "2 33446  97.9177 272.4273 0013967 338.5116  21.5509 14.82661208917379"
      },
      "geometry": {
        "type": "Point",
        "coordinates": [
          109.00333589263366,
          63.60813381982096
        ]
      }
    },
    {
      "type": "Feature",
      "properties": {
        "norad_id": 33492,
        "name": "GOSAT (IBUKI)",
        "group": "resource",
        "lat": 32.985852334239624,
        "lon": 85.94881229939563,
        "alt_km": 666.5198460071815,
        "timestamp": "2025-12-08T13:49:31.449972+00:00",
        "meta_object_name": "GOSAT (IBUKI)",
        "meta_object_id": "2009-002A",
        "meta_epoch": "2025-12-08T07:07:42.326688",
        "meta_mean_motion": 14.67542442,
        "meta_eccentricity": 9.622e-05,
        "meta_inclination": 98.0769,
        "meta_ra_of_asc_node": 90.9621,
        "meta_arg_of_pericenter": 87.8798,
        "meta_mean_anomaly": 272.2516,
        "meta_ephemeris_type": 0,
        "meta_classification_type": "U",
        "meta_norad_cat_id": 33492,
        "meta_element_set_no": 999,
        "meta_rev_at_epoch": 90346,
        "meta_bstar": 0.00032165187,
        "meta_mean_motion_dot": 1.776e-05,
        "meta_mean_motion_ddot": 0,
        "tle_line1": "1 33492U 09002A   25342.29701767  .00001776  00000+0  32165-3 0  9997",
        "tle_line2": "2 33492  98.0769  90.9621 0000962  87.8798 272.2516 14.67542442903469"
      },
      "geometry": {
        "type": "Point",
        "coordinates": [
          85.94881229939563,
          32.985852334239624
        ]
      }
    },
    {
      "type": "Feature",
      "properties": {
        "norad_id": 35681,
        "name": "DEIMOS-1",
        "group": "resource",
        "lat": 0.4626172282699495,
        "lon": 143.3107648637566,
        "alt_km": 648.2016033419177,
        "timestamp": "2025-12-08T13:49:31.449984+00:00",
        "meta_object_name": "DEIMOS-1",
        "meta_object_id": "2009-041A",
        "meta_epoch": "2025-12-08T05:40:56.735328",
        "meta_mean_motion": 14.74942652,
        "meta_eccentricity": 0.00027029,
        "meta_inclination": 97.7153,
        "meta_ra_of_asc_node": 143.0501,
        "meta_arg_of_pericenter": 89.0402,
        "meta_mean_anomaly": 271.1117,
        "meta_ephemeris_type": 0,
        "meta_classification_type": "U",
        "meta_norad_cat_id": 35681,
        "meta_element_set_no": 999,
        "meta_rev_at_epoch": 87873,
        "meta_bstar": 0.00021265104,
        "meta_mean_motion_dot": 1.381e-05,
        "meta_mean_motion_ddot": 0,
        "tle_line1": "1 35681U 09041A   25342.23676777  .00001381  00000+0  21265-3 0  9999",
        "tle_line2": "2 35681  97.7153 143.0501 0002702  89.0402 271.1117 14.74942652878732"
      },
      "geometry": {
        "type": "Point",
        "coordinates": [
          143.3107648637566,
          0.4626172282699495
        ]
      }
    },
    {
      "type": "Feature",
      "properties": {
        "norad_id": 35682,
        "name": "DUBAISAT-1",
        "group": "resource",
        "lat": -58.51967077056946,
        "lon": 126.55914292657472,
        "alt_km": 647.5098141321978,
        "timestamp": "2025-12-08T13:49:31.449995+00:00",
        "meta_object_name": "DUBAISAT-1",
        "meta_object_id": "2009-041B",
        "meta_epoch": "2025-12-08T07:34:47.404416",
        "meta_mean_motion": 14.74585006,
        "meta_eccentricity": 0.00098274,
        "meta_inclination": 97.979,
        "meta_ra_of_asc_node": 113.061,
        "meta_arg_of_pericenter": 329.8871,
        "meta_mean_anomaly": 30.1772,
        "meta_ephemeris_type": 0,
        "meta_classification_type": "U",
        "meta_norad_cat_id": 35682,
        "meta_element_set_no": 999,
        "meta_rev_at_epoch": 87696,
        "meta_bstar": 0.00037631824,
        "meta_mean_motion_dot": 2.459e-05,
        "meta_mean_motion_ddot": 0,
        "tle_line1": "1 35682U 09041B   25342.31582644  .00002459  00000+0  37632-3 0  9990",
        "tle_line2": "2 35682  97.9790 113.0610 0009827 329.8871  30.1772 14.74585006876969"
      },
      "geometry": {
        "type": "Point",
        "coordinates": [
          126.55914292657472,
          -58.51967077056946
        ]
      }
    },
    {
      "type": "Feature",
      "properties": {
        "norad_id": 35931,
        "name": "OCEANSAT-2",
        "group": "resource",
        "lat": 19.143946932576153,
        "lon": 166.4761779096812,
        "alt_km": 898.2270352410414,
        "timestamp": "2025-12-08T13:49:31.450006+00:00",
        "meta_object_name": "OCEANSAT-2",
        "meta_object_id": "2009-051A",
        "meta_epoch": "2025-12-08T06:11:58.657056",
        "meta_mean_motion": 13.99625664,
        "meta_eccentricity": 0.00163946,
        "meta_inclination": 98.2226,
        "meta_ra_of_asc_node": 343.3135,
        "meta_arg_of_pericenter": 56.7201,
        "meta_mean_anomaly": 303.5534,
        "meta_ephemeris_type": 0,
        "meta_classification_type": "U",
        "meta_norad_cat_id": 35931,
        "meta_element_set_no": 999,
        "meta_rev_at_epoch": 85262,
        "meta_bstar": -7.6171785e-05,
        "meta_mean_motion_dot": -1.49e-06,
        "meta_mean_motion_ddot": 0,
        "tle_line1": "1 35931U 09051A   25342.25831779 -.00000149  00000+0 -76172-4 0  9996",
        "tle_line2": "2 35931  98.2226 343.3135 0016394  56.7201 303.5534 13.99625664852625"
      },
      "geometry": {
        "type": "Point",
        "coordinates": [
          166.4761779096812,
          19.143946932576153
        ]
      }
    },
    {
      "type": "Feature",
      "properties": {
        "norad_id": 35946,
        "name": "WORLDVIEW-2 (WV-2)",
        "group": "resource",
        "lat": 70.20674746892962,
        "lon": 29.238443003077297,
        "alt_km": 755.6201259153049,
        "timestamp": "2025-12-08T13:49:31.450017+00:00",
        "meta_object_name": "WORLDVIEW-2 (WV-2)",
        "meta_object_id": "2009-055A",
        "meta_epoch": "2025-12-08T06:48:37.213920",
        "meta_mean_motion": 14.3764993,
        "meta_eccentricity": 0.00053845,
        "meta_inclination": 98.4765,
        "meta_ra_of_asc_node": 53.4301,
        "meta_arg_of_pericenter": 77.5852,
        "meta_mean_anomaly": 282.5938,
        "meta_ephemeris_type": 0,
        "meta_classification_type": "U",
        "meta_norad_cat_id": 35946,
        "meta_element_set_no": 999,
        "meta_rev_at_epoch": 84821,
        "meta_bstar": 0.00014796825,
        "meta_mean_motion_dot": 4.01e-06,
        "meta_mean_motion_ddot": 0,
        "tle_line1": "1 35946U 09055A   25342.28376405  .00000401  00000+0  14797-3 0  9992",
        "tle_line2": "2 35946  98.4765  53.4301 0005384  77.5852 282.5938 14.37649930848214"
      },
      "geometry": {
        "type": "Point",
        "coordinates": [
          29.238443003077297,
          70.20674746892962
        ]
      }
    }
  ]
}